OBJECT_NAME,OBJECT_ID,EPOCH,MEAN_MOTION,ECCENTRICITY,INCLINATION,RA_OF_ASC_NODE,ARG_OF_PERICENTER,MEAN_ANOMALY,EPHEMERIS_TYPE,CLASSIFICATION_TYPE,NORAD_CAT_ID,ELEMENT_SET_NO,REV_AT_EPOCH,BSTAR,MEAN_MOTION_DOT,MEAN_MOTION_DDOT
STARLINK-31228,2024-017S,2026-06-22T10:43:01.438752,15.30195084,.00011547,53.1605,77.8247,105.0554,255.0574,0,U,58842,999,13609,-.19290798E-4,-.93E-5,0
STARLINK-31280,2024-017T,2026-06-22T10:52:08.243616,15.30195992,.00018672,53.1612,77.8663,87.4743,272.6471,0,U,58843,999,13609,-.39959671E-4,-.1543E-4,0
STARLINK-31269,2024-017U,2026-06-22T16:19:25.368672,15.30196252,.00012097,53.1590,166.7748,87.3579,272.7561,0,U,58844,999,13484,-.2021515E-5,-.419E-5,0
STARLINK-31264,2024-017V,2026-06-22T16:40:33.572928,15.30181659,.00012469,53.1597,166.1606,96.4517,263.6626,0,U,58845,999,13485,-.2959483E-4,-.1235E-4,0
STARLINK-31273,2024-017W,2026-06-22T10:56:42.631008,15.30182903,.00013823,53.1596,77.8865,89.6509,270.4651,0,U,58846,999,13609,.2413698E-4,.355E-5,0
STARLINK-31262,2024-017X,2026-06-22T07:26:51.436320,15.30189429,.00012716,53.1591,168.0260,89.8174,270.2972,0,U,58847,999,13479,.14742022E-4,.77E-6,0
STARLINK-31238,2024-019A,2026-06-22T13:27:46.337472,15.27577399,.00014593,43.0038,16.4453,269.6845,90.3840,0,U,58853,999,13512,.28569617E-4,.524E-5,0
STARLINK-31158,2024-019B,2026-06-21T23:29:37.028256,15.27576287,.00013576,43.0026,19.8144,265.5560,94.5137,0,U,58854,999,13503,.1851949E-4,.247E-5,0
STARLINK-31237,2024-019C,2026-06-22T13:20:22.873920,15.27573101,.00013283,43.0039,16.4271,253.2408,106.8298,0,U,58855,999,13512,.14290656E-4,.131E-5,0
STARLINK-31244,2024-019D,2026-06-22T13:44:25.674432,15.27577467,.00014436,43.0011,16.5350,279.6425,80.4264,0,U,58856,999,13512,.56617973E-4,.1296E-4,0
STARLINK-31226,2024-019F,2026-06-22T14:06:37.953792,15.27574612,.00011538,43.0008,16.6522,280.2230,79.8491,0,U,58858,999,13512,.24681474E-4,.417E-5,0
STARLINK-31197,2024-019G,2026-06-22T14:23:17.273472,15.27568853,.00009019,43.0020,16.7397,282.9580,77.1171,0,U,58859,999,13512,.23921792E-4,.396E-5,0
STARLINK-31213,2024-019H,2026-06-21T20:30:33.645312,15.27585549,.00011869,43.0020,20.6035,267.1060,92.9656,0,U,58860,999,13501,-.55401729E-4,-.1786E-4,0
STARLINK-31199,2024-019J,2026-06-21T23:33:19.098720,15.27577791,.0001227,42.9997,19.8403,284.6786,75.3930,0,U,58861,999,13503,.46203016E-4,.1009E-4,0
STARLINK-31200,2024-019K,2026-06-21T23:35:09.873888,15.27578003,.0001372,43.0025,19.8438,269.2737,90.7958,0,U,58862,999,13503,.51475621E-4,.1155E-4,0
STARLINK-31149,2024-019L,2026-06-22T13:03:44.505504,15.27564589,.00004073,43.0009,16.3282,314.3380,45.7439,0,U,58863,999,13512,-.26676061E-4,-.995E-5,0
STARLINK-31242,2024-019M,2026-06-21T23:44:27.113280,15.27559476,.00010282,43.0020,19.8958,287.1781,72.8958,0,U,58864,999,13503,.2107018E-5,-.204E-5,0
STARLINK-31223,2024-019N,2026-06-21T23:46:16.988160,15.27584134,.00013833,43.0010,19.9121,284.8727,75.1971,0,U,58865,999,13501,-.14063037E-4,-.649E-5,0
STARLINK-31219,2024-019P,2026-06-22T13:18:31.561344,15.27573199,.00013069,43.0032,16.4015,252.1189,107.9520,0,U,58866,999,13510,.1237958E-5,-.228E-5,0
STARLINK-31198,2024-019Q,2026-06-21T20:15:44.707680,15.27644164,.00018874,43.0035,20.5127,279.3235,80.7404,0,U,58867,999,13499,-.4940832E-3,-.1386E-3,0
STARLINK-31196,2024-019R,2026-06-22T06:38:03.114816,15.27572890,.00010239,43.0039,18.6102,260.6968,99.3768,0,U,58868,999,13505,.9546825E-5,.1E-7,0
STARLINK-31203,2024-019S,2026-06-21T23:28:27.160032,15.27579862,.00013164,43.0026,16.3279,268.3990,91.6711,0,U,58869,999,13507,.73581281E-4,.1763E-4,0
STARLINK-31201,2024-019T,2026-06-22T13:07:25.008672,15.27564191,.0001396,43.0035,16.3436,263.8829,96.1864,0,U,58870,999,13510,-.12140019E-3,-.36E-4,0
STARLINK-31214,2024-019U,2026-06-21T23:18:30.859200,15.27577082,.00013203,43.0053,19.7514,301.2389,58.8333,0,U,58871,999,13501,.51200694E-4,.1147E-4,0
STARLINK-31215,2024-019V,2026-06-22T13:29:37.766688,15.27573752,.00013773,43.0042,16.4566,251.7250,108.3452,0,U,58872,999,13510,.21563139E-4,.331E-5,0
STARLINK-31177,2024-019W,2026-06-22T13:22:13.508256,15.27574579,.00014256,43.0042,16.4132,256.0214,104.0480,0,U,58873,999,13512,.11320798E-4,.49E-6,0
STARLINK-30945,2024-019X,2026-06-22T06:19:32.272608,15.27601608,.0001576,43.0018,18.5062,272.6476,87.4196,0,U,58874,999,13507,-.15875321E-3,-.4631E-4,0
STARLINK-31212,2024-019Y,2026-06-22T06:56:20.993568,15.27571842,.00012361,43.0028,17.8493,272.1754,87.8956,0,U,58875,999,13506,.19877518E-4,.285E-5,0
STARLINK-31306,2024-020A,2026-06-22T07:31:46.123392,15.34381884,.00011684,53.1600,195.4537,89.0197,271.0940,0,U,58876,999,13528,-.2860872E-5,-.473E-5,0
STARLINK-31326,2024-020B,2026-06-22T12:19:50.087424,15.31697998,.00011737,53.1593,195.2741,89.0967,271.0168,0,U,58877,999,13412,.1266206E-5,-.326E-5,0
