STARLINK-31228          
1 58842U 24017S   26173.44654443 -.00000930  00000+0 -19291-4 0  9993
2 58842  53.1605  77.8247 0001154 105.0554 255.0574 15.30195084136098
STARLINK-31280          
1 58843U 24017T   26173.45287319 -.00001543  00000+0 -39960-4 0  9995
2 58843  53.1612  77.8663 0001867  87.4743 272.6471 15.30195992136092
STARLINK-31269          
1 58844U 24017U   26173.68015473 -.00000419  00000+0 -20215-5 0  9996
2 58844  53.1590 166.7748 0001209  87.3579 272.7561 15.30196252134848
STARLINK-31264          
1 58845U 24017V   26173.69483302 -.00001235  00000+0 -29595-4 0  9994
2 58845  53.1597 166.1606 0001246  96.4517 263.6626 15.30181659134854
STARLINK-31273          
1 58846U 24017W   26173.45604897  .00000355  00000+0  24137-4 0  9990
2 58846  53.1596  77.8865 0001382  89.6509 270.4651 15.30182903136090
STARLINK-31262          
1 58847U 24017X   26173.31031755  .00000077  00000+0  14742-4 0  9995
2 58847  53.1591 168.0260 0001271  89.8174 270.2972 15.30189429134794
STARLINK-31238          
1 58853U 24019A   26173.56095298  .00000524  00000+0  28570-4 0  9994
2 58853  43.0038  16.4453 0001459 269.6845  90.3840 15.27577399135122
STARLINK-31158          
1 58854U 24019B   26172.97890079  .00000247  00000+0  18519-4 0  9993
2 58854  43.0026  19.8144 0001357 265.5560  94.5137 15.27576287135030
STARLINK-31237          
1 58855U 24019C   26173.55582030  .00000131  00000+0  14291-4 0  9999
2 58855  43.0039  16.4271 0001328 253.2408 106.8298 15.27573101135129
STARLINK-31244          
1 58856U 24019D   26173.57251938  .00001296  00000+0  56618-4 0  9994
2 58856  43.0011  16.5350 0001443 279.6425  80.4264 15.27577467135127
STARLINK-31226          
1 58858U 24019F   26173.58793928  .00000417  00000+0  24681-4 0  9996
2 58858  43.0008  16.6522 0001153 280.2230  79.8491 15.27574612135120
STARLINK-31197          
1 58859U 24019G   26173.59950548  .00000396  00000+0  23922-4 0  9994
2 58859  43.0020  16.7397 0000901 282.9580  77.1171 15.27568853135129
STARLINK-31213          
1 58860U 24019H   26172.85455608 -.00001786  00000+0 -55402-4 0  9995
2 58860  43.0020  20.6035 0001186 267.1060  92.9656 15.27585549135010
STARLINK-31199          
1 58861U 24019J   26172.98147105  .00001009  00000+0  46203-4 0  9995
2 58861  42.9997  19.8403 0001227 284.6786  75.3930 15.27577791135038
STARLINK-31200          
1 58862U 24019K   26172.98275317  .00001155  00000+0  51476-4 0  9993
2 58862  43.0025  19.8438 0001372 269.2737  90.7958 15.27578003135035
STARLINK-31149          
1 58863U 24019L   26173.54426511 -.00000995  00000+0 -26676-4 0  9998
2 58863  43.0009  16.3282 0000407 314.3380  45.7439 15.27564589135129
STARLINK-31242          
1 58864U 24019M   26172.98920270 -.00000204  00000+0  21070-5 0  9993
2 58864  43.0020  19.8958 0001028 287.1781  72.8958 15.27559476135039
STARLINK-31223          
1 58865U 24019N   26172.99047440 -.00000649  00000+0 -14063-4 0  9991
2 58865  43.0010  19.9121 0001383 284.8727  75.1971 15.27584134135018
STARLINK-31219          
1 58866U 24019P   26173.55453196 -.00000228  00000+0  12380-5 0  9997
2 58866  43.0032  16.4015 0001306 252.1189 107.9520 15.27573199135105
STARLINK-31198          
1 58867U 24019Q   26172.84426745 -.00013860  00000+0 -49408-3 0  9995
2 58867  43.0035  20.5127 0001887 279.3235  80.7404 15.27644164134992
STARLINK-31196          
1 58868U 24019R   26173.27642494  .00000001  00000+0  95468-5 0  9995
2 58868  43.0039  18.6102 0001023 260.6968  99.3768 15.27572890135059
STARLINK-31203          
1 58869U 24019S   26172.97809213  .00001763  00000+0  73581-4 0  9993
2 58869  43.0026  16.3279 0001316 268.3990  91.6711 15.27579862135072
STARLINK-31201          
1 58870U 24019T   26173.54681723 -.00003600  00000+0 -12140-3 0  9990
2 58870  43.0035  16.3436 0001396 263.8829  96.1864 15.27564191135100
STARLINK-31214          
1 58871U 24019U   26172.97119050  .00001147  00000+0  51201-4 0  9990
2 58871  43.0053  19.7514 0001320 301.2389  58.8333 15.27577082135019
STARLINK-31215          
1 58872U 24019V   26173.56224267  .00000331  00000+0  21563-4 0  9996
2 58872  43.0042  16.4566 0001377 251.7250 108.3452 15.27573752135100
STARLINK-31177          
1 58873U 24019W   26173.55710079  .00000049  00000+0  11321-4 0  9994
2 58873  43.0042  16.4132 0001425 256.0214 104.0480 15.27574579135126
STARLINK-30945          
1 58874U 24019X   26173.26356797 -.00004631  00000+0 -15875-3 0  9996
2 58874  43.0018  18.5062 0001576 272.6476  87.4196 15.27601608135072
STARLINK-31212          
1 58875U 24019Y   26173.28913187  .00000285  00000+0  19878-4 0  9998
2 58875  43.0028  17.8493 0001236 272.1754  87.8956 15.27571842135064
STARLINK-31306          
1 58876U 24020A   26173.31372828 -.00000473  00000+0 -28609-5 0  9990
2 58876  53.1600 195.4537 0001168  89.0197 271.0940 15.34381884135282
STARLINK-31326          
1 58877U 24020B   26173.51377416 -.00000326  00000+0  12662-5 0  9999
2 58877  53.1593 195.2741 0001173  89.0967 271.0168 15.31697998134127
